{
  "type": "FeatureCollection",
  "features": [
    {
      "type": "Feature",
      "properties": {
        "norad_id": 66808,
        "name": "STARLINK-36071",
        "group": "last-30-days",
        "lat": 41.962076814780936,
        "lon": -27.726980556587083,
        "alt_km": 298.27644701952886,
        "timestamp": "2025-12-11T20:41:13.848608+00:00",
        "meta_object_name": "STARLINK-36071",
        "meta_object_id": "2025-278T",
        "meta_epoch": "2025-12-11T14:00:01.999872",
        "meta_mean_motion": 15.90302143,
        "meta_eccentricity": 0.00019376,
        "meta_inclination": 42.9981,
        "meta_ra_of_asc_node": 259.1922,
        "meta_arg_of_pericenter": 259.4675,
        "meta_mean_anomaly": 22.6548,
        "meta_ephemeris_type": 0,
        "meta_classification_type": "U",
        "meta_norad_cat_id": 66808,
        "meta_element_set_no": 999,
        "meta_rev_at_epoch": 277,
        "meta_bstar": -0.0044223603,
        "meta_mean_motion_dot": -0.01242544,
        "meta_mean_motion_ddot": 0,
        "tle_line1": "1 66808U 25278T   25345.58335648 -.01242544  00000+0 -44224-2 0  9994",
        "tle_line2": "2 66808  42.9981 259.1922 0001937 259.4675  22.6548 15.90302143  2772"
      },
      "geometry": {
        "type": "Point",
        "coordinates": [
          -27.726980556587083,
          41.962076814780936
        ]
      }
    },
    {
      "type": "Feature",
      "properties": {
        "norad_id": 66809,
        "name": "STARLINK-35979",
        "group": "last-30-days",
        "lat": 42.8636130636009,
        "lon": -17.653034525672506,
        "alt_km": 298.06784449438146,
        "timestamp": "2025-12-11T20:41:13.848618+00:00",
        "meta_object_name": "STARLINK-35979",
        "meta_object_id": "2025-278U",
        "meta_epoch": "2025-12-11T14:00:01.999872",
        "meta_mean_motion": 15.90383651,
        "meta_eccentricity": 0.00021181,
        "meta_inclination": 42.998,
        "meta_ra_of_asc_node": 259.1735,
        "meta_arg_of_pericenter": 259.4387,
        "meta_mean_anomaly": 30.1028,
        "meta_ephemeris_type": 0,
        "meta_classification_type": "U",
        "meta_norad_cat_id": 66809,
        "meta_element_set_no": 999,
        "meta_rev_at_epoch": 277,
        "meta_bstar": -0.0044849433,
        "meta_mean_motion_dot": -0.01263012,
        "meta_mean_motion_ddot": 0,
        "tle_line1": "1 66809U 25278U   25345.58335648 -.01263012  00000+0 -44849-2 0  9991",
        "tle_line2": "2 66809  42.9980 259.1735 0002118 259.4387  30.1028 15.90383651  2776"
      },
      "geometry": {
        "type": "Point",
        "coordinates": [
          -17.653034525672506,
          42.8636130636009
        ]
      }
    },
    {
      "type": "Feature",
      "properties": {
        "norad_id": 66810,
        "name": "STARLINK-36046",
        "group": "last-30-days",
        "lat": 42.368224663893145,
        "lon": -24.33234394964131,
        "alt_km": 298.2032263913461,
        "timestamp": "2025-12-11T20:41:13.848628+00:00",
        "meta_object_name": "STARLINK-36046",
        "meta_object_id": "2025-278V",
        "meta_epoch": "2025-12-11T14:00:01.999872",
        "meta_mean_motion": 15.9033193,
        "meta_eccentricity": 0.00020136,
        "meta_inclination": 42.9982,
        "meta_ra_of_asc_node": 259.1862,
        "meta_arg_of_pericenter": 259.0354,
        "meta_mean_anomaly": 25.6111,
        "meta_ephemeris_type": 0,
        "meta_classification_type": "U",
        "meta_norad_cat_id": 66810,
        "meta_element_set_no": 999,
        "meta_rev_at_epoch": 254,
        "meta_bstar": -0.0044556347,
        "meta_mean_motion_dot": -0.01252621,
        "meta_mean_motion_ddot": 0,
        "tle_line1": "1 66810U 25278V   25345.58335648 -.01252621  00000+0 -44556-2 0  9992",
        "tle_line2": "2 66810  42.9982 259.1862 0002013 259.0354  25.6111 15.90331930  2545"
      },
      "geometry": {
        "type": "Point",
        "coordinates": [
          -24.33234394964131,
          42.368224663893145
        ]
      }
    },
    {
      "type": "Feature",
      "properties": {
        "norad_id": 66811,
        "name": "STARLINK-36045",
        "group": "last-30-days",
        "lat": 42.67689285513446,
        "lon": -20.840412454396755,
        "alt_km": 298.0651335950488,
        "timestamp": "2025-12-11T20:41:13.848638+00:00",
        "meta_object_name": "STARLINK-36045",
        "meta_object_id": "2025-278W",
        "meta_epoch": "2025-12-11T14:00:01.999872",
        "meta_mean_motion": 15.90357443,
        "meta_eccentricity": 0.0001966,
        "meta_inclination": 42.9982,
        "meta_ra_of_asc_node": 259.1797,
        "meta_arg_of_pericenter": 262.6351,
        "meta_mean_anomaly": 24.5804,
        "meta_ephemeris_type": 0,
        "meta_classification_type": "U",
        "meta_norad_cat_id": 66811,
        "meta_element_set_no": 999,
        "meta_rev_at_epoch": 277,
        "meta_bstar": -0.0044755648,
        "meta_mean_motion_dot": -0.01259038,
        "meta_mean_motion_ddot": 0,
        "tle_line1": "1 66811U 25278W   25345.58335648 -.01259038  00000+0 -44756-2 0  9994",
        "tle_line2": "2 66811  42.9982 259.1797 0001966 262.6351  24.5804 15.90357443  2775"
      },
      "geometry": {
        "type": "Point",
        "coordinates": [
          -20.840412454396755,
          42.67689285513446
        ]
      }
    },
    {
      "type": "Feature",
      "properties": {
        "norad_id": 66812,
        "name": "STARLINK-36054",
        "group": "last-30-days",
        "lat": 42.95459250104288,
        "lon": -14.83215338244461,
        "alt_km": 297.87068840079155,
        "timestamp": "2025-12-11T20:41:13.848649+00:00",
        "meta_object_name": "STARLINK-36054",
        "meta_object_id": "2025-278X",
        "meta_epoch": "2025-12-11T14:00:01.999872",
        "meta_mean_motion": 15.90414647,
        "meta_eccentricity": 0.00019615,
        "meta_inclination": 42.9982,
        "meta_ra_of_asc_node": 259.1685,
        "meta_arg_of_pericenter": 262.461,
        "meta_mean_anomaly": 29.1188,
        "meta_ephemeris_type": 0,
        "meta_classification_type": "U",
        "meta_norad_cat_id": 66812,
        "meta_element_set_no": 999,
        "meta_rev_at_epoch": 277,
        "meta_bstar": -0.0044932896,
        "meta_mean_motion_dot": -0.01266786,
        "meta_mean_motion_ddot": 0,
        "tle_line1": "1 66812U 25278X   25345.58335648 -.01266786  00000+0 -44933-2 0  9990",
        "tle_line2": "2 66812  42.9982 259.1685 0001961 262.4610  29.1188 15.90414647  2779"
      },
      "geometry": {
        "type": "Point",
        "coordinates": [
          -14.83215338244461,
          42.95459250104288
        ]
      }
    },
    {
      "type": "Feature",
      "properties": {
        "norad_id": 66813,
        "name": "STARLINK-36042",
        "group": "last-30-days",
        "lat": 42.97646750221742,
        "lon": -12.226309053530692,
        "alt_km": 297.8518972263255,
        "timestamp": "2025-12-11T20:41:13.848659+00:00",
        "meta_object_name": "STARLINK-36042",
        "meta_object_id": "2025-278Y",
        "meta_epoch": "2025-12-11T14:00:01.999872",
        "meta_mean_motion": 15.90446544,
        "meta_eccentricity": 0.00020678,
        "meta_inclination": 42.9981,
        "meta_ra_of_asc_node": 259.1636,
        "meta_arg_of_pericenter": 262.1167,
        "meta_mean_anomaly": 31.3413,
        "meta_ephemeris_type": 0,
        "meta_classification_type": "U",
        "meta_norad_cat_id": 66813,
        "meta_element_set_no": 999,
        "meta_rev_at_epoch": 277,
        "meta_bstar": -0.0045010205,
        "meta_mean_motion_dot": -0.01270659,
        "meta_mean_motion_ddot": 0,
        "tle_line1": "1 66813U 25278Y   25345.58335648 -.01270659  00000+0 -45010-2 0  9992",
        "tle_line2": "2 66813  42.9981 259.1636 0002067 262.1167  31.3413 15.90446544  2774"
      },
      "geometry": {
        "type": "Point",
        "coordinates": [
          -12.226309053530692,
          42.97646750221742
        ]
      }
    },
    {
      "type": "Feature",
      "properties": {
        "norad_id": 66814,
        "name": "STARLINK-35984",
        "group": "last-30-days",
        "lat": 41.02946552904633,
        "lon": 8.340826096821148,
        "alt_km": 297.6571646875691,
        "timestamp": "2025-12-11T20:41:13.848669+00:00",
        "meta_object_name": "STARLINK-35984",
        "meta_object_id": "2025-278Z",
        "meta_epoch": "2025-12-11T14:00:01.999872",
        "meta_mean_motion": 15.90586497,
        "meta_eccentricity": 0.0001988,
        "meta_inclination": 42.9979,
        "meta_ra_of_asc_node": 259.1247,
        "meta_arg_of_pericenter": 259.3166,
        "meta_mean_anomaly": 49.3971,
        "meta_ephemeris_type": 0,
        "meta_classification_type": "U",
        "meta_norad_cat_id": 66814,
        "meta_element_set_no": 999,
        "meta_rev_at_epoch": 286,
        "meta_bstar": -0.0046256751,
        "meta_mean_motion_dot": -0.01310074,
        "meta_mean_motion_ddot": 0,
        "tle_line1": "1 66814U 25278Z   25345.58335648 -.01310074  00000+0 -46257-2 0  9993",
        "tle_line2": "2 66814  42.9979 259.1247 0001988 259.3166  49.3971 15.90586497  2868"
      },
      "geometry": {
        "type": "Point",
        "coordinates": [
          8.340826096821148,
          41.02946552904633
        ]
      }
    }
  ]
}